{
    "links": {
        "self": "http://www.neowsapp.com/rest/v1/neo/3740493?api_key=iIulBulltgU6a56xZRHN4H3l9WmuAYTsLGpBGhQ2"
    },
    "id": "3740493",
    "neo_reference_id": "3740493",
    "name": "(2016 AB193)",
    "designation": "2016 AB193",
    "nasa_jpl_url": "http://ssd.jpl.nasa.gov/sbdb.cgi?sstr=3740493",
    "absolute_magnitude_h": 22.2,
    "estimated_diameter": {
        "kilometers": {
            "estimated_diameter_min": 0.096506147,
            "estimated_diameter_max": 0.2157943048
        },
        "meters": {
            "estimated_diameter_min": 96.5061469579,
            "estimated_diameter_max": 215.7943048444
        },
        "miles": {
            "estimated_diameter_min": 0.059966121,
            "estimated_diameter_max": 0.134088323
        },
        "feet": {
            "estimated_diameter_min": 316.6212271853,
            "estimated_diameter_max": 707.9865871058
        }
    },
    "is_potentially_hazardous_asteroid": false,
    "close_approach_data": [
        {
            "close_approach_date": "1972-01-11",
            "close_approach_date_full": "1972-Jan-11 16:19",
            "epoch_date_close_approach": 63994740000,
            "relative_velocity": {
                "kilometers_per_second": "9.644955082",
                "kilometers_per_hour": "34721.8382952021",
                "miles_per_hour": "21574.8000229271"
            },
            "miss_distance": {
                "astronomical": "0.3230136856",
                "lunar": "125.6523236984",
                "kilometers": "48322159.346609672",
                "miles": "30025997.4939785936"
            },
            "orbiting_body": "Earth"
        },
        {
            "close_approach_date": "1994-01-13",
            "close_approach_date_full": "1994-Jan-13 12:55",
            "epoch_date_close_approach": 758465700000,
            "relative_velocity": {
                "kilometers_per_second": "7.6718293566",
                "kilometers_per_hour": "27618.5856836758",
                "miles_per_hour": "17161.1150877262"
            },
            "miss_distance": {
                "astronomical": "0.262207483",
                "lunar": "101.998710887",
                "kilometers": "39225680.95486121",
                "miles": "24373707.921496298"
            },
            "orbiting_body": "Earth"
        },
        {
            "close_approach_date": "2016-01-23",
            "close_approach_date_full": "2016-Jan-23 02:09",
            "epoch_date_close_approach": 1453514940000,
            "relative_velocity": {
                "kilometers_per_second": "7.1024871313",
                "kilometers_per_hour": "25568.953672569",
                "miles_per_hour": "15887.553463936"
            },
            "miss_distance": {
                "astronomical": "0.3583382099",
                "lunar": "139.3935636511",
                "kilometers": "53606632.940652913",
                "miles": "33309617.1218516794"
            },
            "orbiting_body": "Earth"
        },
        {
            "close_approach_date": "2041-01-08",
            "close_approach_date_full": "2041-Jan-08 08:10",
            "epoch_date_close_approach": 2241245400000,
            "relative_velocity": {
                "kilometers_per_second": "11.8468553377",
                "kilometers_per_hour": "42648.6792156782",
                "miles_per_hour": "26500.2307048752"
            },
            "miss_distance": {
                "astronomical": "0.4628617339",
                "lunar": "180.0532144871",
                "kilometers": "69243129.495946793",
                "miles": "43025685.5412320234"
            },
            "orbiting_body": "Earth"
        },
        {
            "close_approach_date": "2063-01-12",
            "close_approach_date_full": "2063-Jan-12 22:53",
            "epoch_date_close_approach": 2935867980000,
            "relative_velocity": {
                "kilometers_per_second": "8.9795899815",
                "kilometers_per_hour": "32326.5239333798",
                "miles_per_hour": "20086.4448296048"
            },
            "miss_distance": {
                "astronomical": "0.2861144085",
                "lunar": "111.2985049065",
                "kilometers": "42802106.087909895",
                "miles": "26595995.450330751"
            },
            "orbiting_body": "Earth"
        }
    ],
    "orbital_data": {
        "orbit_id": "6",
        "orbit_determination_date": "2017-04-06 08:29:04",
        "first_observation_date": "2016-01-11",
        "last_observation_date": "2016-02-11",
        "data_arc_in_days": 31,
        "observations_used": 28,
        "orbit_uncertainty": "6",
        "minimum_orbit_intersection": ".258728",
        "jupiter_tisserand_invariant": "3.541",
        "epoch_osculation": "2459000.5",
        "eccentricity": ".4488604738668626",
        "semi_major_axis": "2.142958570431148",
        "inclination": "14.01624490449505",
        "ascending_node_longitude": "142.9225153141367",
        "orbital_period": "1145.827099359033",
        "perihelion_distance": "1.181069171030368",
        "perihelion_argument": "308.9700593933347",
        "aphelion_distance": "3.104847969831928",
        "perihelion_time": "2458508.983642445163",
        "mean_anomaly": "154.4263430483739",
        "mean_motion": ".3141835275159587",
        "equinox": "J2000",
        "orbit_class": {
            "orbit_class_type": "AMO",
            "orbit_class_description": "Near-Earth asteroid orbits similar to that of 1221 Amor",
            "orbit_class_range": "1.017 AU < q (perihelion) < 1.3 AU"
        }
    },
    "is_sentry_object": false
}